#dP2024  7  9  6  0  0.00000000      96 __u+U IGS20 EXT  IAC
## 2322 194400.00000000   900.00000000 60500 0.2500000000000
+   54   G02G03G04G05G06G07G08G09G10G11G12G13G14G15G16G17G18
+        G19G20G21G22G23G24G25G26G27G28G29G30G31G32R01R02R03
+        R04R05R07R08R09R11R12R13R14R15R16R17R18R19R20R21R22
+        R24R25R26  0  0  0  0  0  0  0  0  0  0  0  0  0  0
+          0  0  0  0  0  0  0  0  0  0  0  0  0  0  0  0  0
++         8  8  9  7  8  8  8  8  8  8  8  8  9  9  8  8  8
++         8  8  7  9  8  8  8  9  7  9  9  9  9  8  9  8  8
++         8  8  9  7  7  9  8  9  8  9  8  7  8  8 10  9  7
++         9  8  9  0  0  0  0  0  0  0  0  0  0  0  0  0  0
++         0  0  0  0  0  0  0  0  0  0  0  0  0  0  0  0  0
%c M  cc GPS ccc cccc cccc cccc cccc ccccc ccccc ccccc ccccc
%c cc cc ccc ccc cccc cccc cccc cccc ccccc ccccc ccccc ccccc
%f  0.0000000  0.000000000  0.00000000000  0.000000000000000
%f  0.0000000  0.000000000  0.00000000000  0.000000000000000
%i    0    0    0    0      0      0      0      0         0
%i    0    0    0    0      0      0      0      0         0
/* IAC                                ULTRA-RAPID PREDICTION
/* S/V CLOCKS ARE ALIGNED TO GNSS TIME                      
/* G:C1WC2W R:C1PC2P E:C1XC5X C:C2IC6I J:C1CC2S             
/* PCV:IGS20_2317 OL/AL:FES2004  NONE     YN ORB:CoN CLK:CoN
*  2024 07 09 21 30  0.00000000
PG02 -14117.066700  17393.389956  14501.716846   -402.154778
PG03 -19845.018281  12703.491164 -12301.269617    451.014103
PG04 -10184.832259  11259.465125 -21770.689607    400.448026
PG05  25983.943705  -4747.384701  -3361.040131   -179.188426
PG06   7344.006021  17157.678219 -18792.700575    171.143455
PG07  -4832.231713  25588.739679   4256.160436    -73.368236
PG08 -18204.161923   1120.328109  19339.259992    267.317204
PG09   1417.197960  19578.289662 -17951.929936    266.810962
PG10 -11482.471142 -11812.659495  21115.759945    -62.109319
PG11  14802.510971   3332.794725 -21773.335393   -701.832553
PG12  22180.750383 -10608.641943 -10261.232290   -520.943938
PG13  19256.854808   8767.443313  15986.932831    663.487224
PG14   7207.505326  14246.423797  21290.075246    444.999123
PG15  17874.702418  -3523.021821  18883.371065    179.291482
PG16 -26095.067067   -971.236255  -6340.437665   -241.220222
PG17  12009.379105  22597.322549   7204.509395    680.644676
PG18   5288.865321 -25521.805322   4501.756870   -634.749485
PG19  17260.927396  20348.769999  -2499.179006    508.142393
PG20  23114.947809    199.228628 -12879.746657    372.939642
PG21 -15449.072710  11659.093599  18130.434029    109.999551
PG22  14871.026677  11498.254782  19066.272873    -37.621798
PG23   2061.961503 -15415.607337  21522.202857    269.968255
PG24  14509.773244 -15978.492116  14778.942187   -482.377074
PG25  12737.959929 -15828.559486 -17307.829156    498.345645
PG26 -19380.171428  -7241.889271 -17005.410161    122.844482
PG27 -21264.213099  -9971.846654  12510.056768    -30.708361
PG28  -6996.470816 -19174.230533 -17005.084649   -324.441466
PG29   3106.079975 -17678.040390 -19583.508140   -590.345564
PG30   3180.489835  22710.442532  13319.872322   -360.554998
PG31 -13420.553567  -8148.111890 -21605.232957   -226.878745
PG32 -14987.479933 -21443.317795   5379.475751   -612.966039
PR01  23556.212308   7308.464741   6541.377044     90.884030
PR02  15493.377482  -2670.926247  20108.783573    -23.649219
PR03  -1160.077633 -12244.612850  22400.685088    103.510470
PR04 -16591.316874 -14811.694635  12529.257040    244.626477
PR05 -23262.123019  -9660.978277  -4086.847428    134.292332
PR07   1812.716831  12438.960704 -22147.982171     86.311506
PR08  16895.676071  14656.469572 -12175.221117     -5.766577
PR09 -20897.595416  14515.577651   -943.406818    196.776519
PR11   3232.776615  10950.925658  22822.658664     18.700488
PR12  18695.689387  -2764.587307  17157.074169     42.253029
PR13  21653.443298 -12981.082814   3638.469789    -49.148416
PR14  11495.878780 -16962.243806 -15189.328170     26.667123
PR15  -4770.052182 -10103.221056 -22905.773852     78.026069
PR16 -18495.091980   2793.112010 -17307.237645     27.210715
PR17   1395.234854 -24628.507527  -6395.703582    103.159716
PR18  -5707.483524 -22757.010492  10072.771576    151.140199
PR19  -9504.652052 -11332.033722  20773.909733   -283.281099
PR20  -9069.642050  11694.043912  20769.518669   -115.858908
PR21  -1762.604662  24541.849503   6787.017477   -116.179196
PR22   5784.266073  22252.154539 -11017.970001     91.011593
PR24   8805.379603 -12661.746848 -20298.955147    -63.125902
PR25  -2290.010837  24689.779997   6045.271529    -95.603473
PR26  15990.134839  14690.060727 -13387.048261      3.524665
*  2024 07 09 21 45  0.00000000
PG02 -13970.809776  15680.693424  16547.515220   -402.148213
PG03 -21089.198449  12848.874409  -9779.178162    451.029020
PG04 -11875.061887   9424.391354 -21798.104731    400.455098
PG05  25547.179399  -4391.996784  -6165.633556   -179.189688
PG06   6659.605028  19105.479346 -17087.715962    171.123270
PG07  -5210.690370  25766.987879   1419.416423    -73.361018
PG08 -19673.314303   -442.923927  17920.831525    267.332205
PG09   -201.457827  18196.179107 -19413.116195    266.824348
PG10  -9163.135997 -12440.737021  21854.524374    -62.117826
PG11  14026.747637   5705.794806 -21799.529469   -701.838895
PG12  23196.939075 -10565.577297  -7652.543034   -520.946775
PG13  20160.248304  10255.001841  13899.642261    663.489487
PG14   4829.292229  14820.270499  21549.940223    445.007193
PG15  19519.014666  -2088.617890  17469.479817    179.295283
PG16 -25312.625427  -1304.776439  -8992.423742   -241.210606
PG17  11235.358386  22040.910870   9858.546629    680.638143
PG18   5609.779469 -25792.879472   1635.205561   -634.753242
PG19  17166.135210  20556.343066    342.971721    508.147284
PG20  21738.818255   1072.440057 -15053.123421    372.939282
PG21 -15239.438799   9549.004863  19610.270557    109.997299
PG22  12736.717225  11967.405749  20334.809305    -37.625963
PG23   4395.651245 -16019.729152  20696.481247    269.976319
PG24  14435.477467 -14071.503527  16657.656253   -482.378654
PG25  14552.726541 -16131.326743 -15438.755558    498.346016
PG26 -17541.584927  -8056.323910 -18544.513170    122.838382
PG27 -22058.829782 -11043.276368  10090.997137    -30.709302
PG28  -6396.656303 -20915.906859 -15077.979049   -324.455936
PG29   4658.344796 -15983.095871 -20713.906880   -590.343850
PG30   2536.507402  23969.038125  11003.381976   -360.549164
PG31 -12662.883002 -10428.223986 -21035.157315   -226.878451
PG32 -14307.326710 -21075.706577   8088.532424   -612.964354
PR01  24178.857993   7409.465172   3406.006043     90.885082
PR02  17679.736685  -1764.010148  18316.767587    -23.649412
PR03   1370.615735 -11070.633179  22988.469110    103.510972
PR04 -15107.813267 -13964.938849  15115.756525    244.627805
PR05 -23617.781379  -9626.108261   -878.928046    134.292612
PR07   -713.888137  11262.713436 -22832.230465     86.312213
PR08  15422.269419  13848.461452 -14786.699805     -5.767175
PR09 -20597.021325  14388.462862  -4113.525995    196.778311
PR11   1022.100801  12623.114931  22153.247958     18.699386
PR12  16845.219106  -1513.695936  19121.416166     42.253395
PR13  21064.079078 -12696.694330   6758.232157    -49.148726
PR14  12820.969851 -18062.140403 -12653.997423     26.667102
PR15  -2514.040101 -11770.044913 -22465.800220     78.025617
PR16 -16621.174402   1524.405476 -19258.107409     27.211027
PR17   1313.018551 -23636.886140  -9435.601728    103.162616
PR18  -5988.510717 -23793.628239   7065.480832    151.141905
PR19  -9746.061078 -13789.241362  19109.341411   -283.282088
PR20  -9117.866145   9047.503709  22034.295176   -115.859411
PR21  -1661.208439  23504.083418   9807.832191   -116.182056
PR22   5987.759996  23425.366457  -8095.411557     91.006168
PR24   8990.215195 -10077.238667 -21623.428271    -63.127252
PR25  -2201.410074  23750.985102   9077.286815    -95.605364
PR26  14389.165329  13838.514026 -15873.983481      3.527287
EOF
